[{"OBJECT_NAME":"NIGHTJAR","OBJECT_ID":"2024-149BV","EPOCH":"2026-03-09T15:29:33.054144","MEAN_MOTION":14.9839881,"ECCENTRICITY":0.00023928,"INCLINATION":97.6919,"RA_OF_ASC_NODE":146.7603,"ARG_OF_PERICENTER":83.3363,"MEAN_ANOMALY":276.8132,"EPHEMERIS_TYPE":0,"CLASSIFICATION_TYPE":"U","NORAD_CAT_ID":60535,"ELEMENT_SET_NO":999,"REV_AT_EPOCH":12796,"BSTAR":0.00036343971,"MEAN_MOTION_DOT":4.278e-5,"MEAN_MOTION_DDOT":0},{"OBJECT_NAME":"ATLAS 5 CENTAUR R\/B","OBJECT_ID":"2007-027B","EPOCH":"2026-03-09T15:46:13.058976","MEAN_MOTION":14.51560256,"ECCENTRICITY":0.05000955,"INCLINATION":63.3111,"RA_OF_ASC_NODE":178.9158,"ARG_OF_PERICENTER":42.233,"MEAN_ANOMALY":321.6153,"EPHEMERIS_TYPE":0,"CLASSIFICATION_TYPE":"U","NORAD_CAT_ID":31702,"ELEMENT_SET_NO":999,"REV_AT_EPOCH":9634,"BSTAR":0.00064832626,"MEAN_MOTION_DOT":0.0001437,"MEAN_MOTION_DDOT":0}]
